<?xml version="1.0" encoding="UTF-8" standalone="no" ?>
<gpx xmlns="http://www.topografix.com/GPX/1/1" xmlns:gpxx="http://www.garmin.com/xmlschemas/GpxExtensions/v3" xmlns:gpxtpx="http://www.garmin.com/xmlschemas/TrackPointExtension/v1" creator="mapstogpx.com" version="1.1" xmlns:xsi="http://www.w3.org/2001/XMLSchema-instance" xsi:schemaLocation="http://www.topografix.com/GPX/1/1 http://www.topografix.com/GPX/1/1/gpx.xsd http://www.garmin.com/xmlschemas/GpxExtensions/v3 http://www.garmin.com/xmlschemas/GpxExtensionsv3.xsd http://www.garmin.com/xmlschemas/TrackPointExtension/v1 http://www.garmin.com/xmlschemas/TrackPointExtensionv1.xsd">
  <metadata>
    <link href="http://www.mapstogpx.com">
      <text>Sverrir Sigmundarson</text>
    </link>
    <!--desc>Powered by Google, ©2026 Google</desc-->
    <!--copyright author="Google Inc">
    	<year>2026</year>
    	<license>https://developers.google.com/maps/terms</license>
    </copyright-->
    <!--url>https://www.google.com/maps/dir/Baron+Empain+Palace,+El-Orouba,+El-Montaza,+Heliopolis,+Cairo+Governorate+11757,+Egypt/Bouch%C3%A9e,+22+Baghdad+St,+Korba,+Heliopolis,+Cairo+Governorate+4460245,+Egypt/Basilique+Notre+Dame+d'Heliopolis+-+Our+Lady+of+Heliopolis+Co-Cathedral%D8%8C+Nazih+Khalifa+crossroad%D8%8C+26+Al+Ahram,+Almazah,+Heliopolis,+Cairo+Governorate,+Egypt%E2%80%AD/Merryland+Park,+El-Montaza,+Heliopolis,+Cairo+Governorate+11371,+Egypt/El+Korba+Square,+%D9%A3%D9%A5+Baghdad+St,+El-Montaza,+Heliopolis,+Cairo+Governorate+4460212,+Egypt%E2%80%AD/@30.0913432,31.3128507,15z/data=!3m1!4b1!4m32!4m31!1m5!1m1!1s0x14583e21f28cf1d7:0x30bcfb14f962d52c!2m2!1d31.3303125!2d30.0866875!1m5!1m1!1s0x14583f43a80a12ed:0xa3400bbd0d7a60da!2m2!1d31.3239741!2d30.0910412!1m5!1m1!1s0x14581589fa21d825:0x83d090ab98933ae5!2m2!1d31.3251828!2d30.0935707!1m5!1m1!1s0x145815863af0db1f:0x256d096590e34ff7!2m2!1d31.3168978!2d30.0966067!1m5!1m1!1s0x14583f99638adb51:0x15ae438699460cc2!2m2!1d31.3212215!2d30.0911387!3e2?entry=tts&g_ep=EgoyMDI2MDkyOC4wIPu8ASoASAFQAw%3D%3D&skid=41de7994-2a45-4bd6-a6d5-69de858ab5b9&hl=en</url-->
    <time>2026-10-01T13:45:12Z</time>
  </metadata>
  <wpt lat="30.0866875" lon="31.3303125">
    <name>Baron Empain Palace</name>
    <desc>Baron Empain Palace, El-Orouba, El-Montaza, Heliopolis, Cairo Governorate 11757, Egypt</desc>
  </wpt>
  <wpt lat="30.0910412" lon="31.3239741">
    <name>Bouchée</name>
    <desc>Bouchée, 22 Baghdad St, Korba, Heliopolis, Cairo Governorate 4460245, Egypt</desc>
  </wpt>
  <wpt lat="30.0935707" lon="31.3251828">
    <name>Basilique Notre Dame d&apos;Heliopolis - Our Lady of Heliopolis Co-Cathedral، Nazih Khalifa crossroad، 26 Al Ahram</name>
    <desc>Basilique Notre Dame d&apos;Heliopolis - Our Lady of Heliopolis Co-Cathedral, Nazih Khalifa crossroad، 26 Al Ahram, Almazah, Heliopolis, Cairo Governorate, Egypt</desc>
  </wpt>
  <wpt lat="30.0966067" lon="31.3168978">
    <name>Merryland Park</name>
    <desc>Merryland Park, El-Montaza, Heliopolis, Cairo Governorate 11371, Egypt</desc>
  </wpt>
  <wpt lat="30.0911387" lon="31.3212215">
    <name>El Korba Square</name>
    <desc>El Korba Square, ٣٥ Baghdad St, El-Montaza, Heliopolis, Cairo Governorate 4460212, Egypt</desc>
  </wpt>
<trk>
  <name>Baron Empain Palace to El Korba Square</name>
  <number>1</number>
  <trkseg>
  <trkpt lat="30.0869589" lon="31.3307806">
    <name>TP001</name>
  </trkpt>
  <trkpt lat="30.0869" lon="31.33082">
    <name>TP002</name>
  </trkpt>
  <trkpt lat="30.08638" lon="31.33123">
    <name>TP003</name>
  </trkpt>
  <trkpt lat="30.0863782" lon="31.3312304">
    <name>TP004</name>
  </trkpt>
  <trkpt lat="30.08602" lon="31.3307">
    <name>TP005</name>
  </trkpt>
  <trkpt lat="30.08579" lon="31.33026">
    <name>TP006</name>
  </trkpt>
  <trkpt lat="30.08569" lon="31.33006">
    <name>TP007</name>
  </trkpt>
  <trkpt lat="30.08562" lon="31.32983">
    <name>TP008</name>
  </trkpt>
  <trkpt lat="30.08556" lon="31.32954">
    <name>TP009</name>
  </trkpt>
  <trkpt lat="30.0855" lon="31.32918">
    <name>TP010</name>
  </trkpt>
  <trkpt lat="30.08535" lon="31.32816">
    <name>TP011</name>
  </trkpt>
  <trkpt lat="30.08522" lon="31.32721">
    <name>TP012</name>
  </trkpt>
  <trkpt lat="30.0852168" lon="31.3272112">
    <name>TP013</name>
  </trkpt>
  <trkpt lat="30.08511" lon="31.32726">
    <name>TP014</name>
  </trkpt>
  <trkpt lat="30.08493" lon="31.32729">
    <name>TP015</name>
  </trkpt>
  <trkpt lat="30.08476" lon="31.32732">
    <name>TP016</name>
  </trkpt>
  <trkpt lat="30.08446" lon="31.32737">
    <name>TP017</name>
  </trkpt>
  <trkpt lat="30.0844612" lon="31.3273745">
    <name>TP018</name>
  </trkpt>
  <trkpt lat="30.08445" lon="31.32731">
    <name>TP019</name>
  </trkpt>
  <trkpt lat="30.084451" lon="31.3273081">
    <name>TP020</name>
  </trkpt>
  <trkpt lat="30.08442" lon="31.32724">
    <name>TP021</name>
  </trkpt>
  <trkpt lat="30.0844" lon="31.32718">
    <name>TP022</name>
  </trkpt>
  <trkpt lat="30.08437" lon="31.32702">
    <name>TP023</name>
  </trkpt>
  <trkpt lat="30.08433" lon="31.32654">
    <name>TP024</name>
  </trkpt>
  <trkpt lat="30.08433" lon="31.32649">
    <name>TP025</name>
  </trkpt>
  <trkpt lat="30.08432" lon="31.32629">
    <name>TP026</name>
  </trkpt>
  <trkpt lat="30.08432" lon="31.32621">
    <name>TP027</name>
  </trkpt>
  <trkpt lat="30.08433" lon="31.32596">
    <name>TP028</name>
  </trkpt>
  <trkpt lat="30.08434" lon="31.32587">
    <name>TP029</name>
  </trkpt>
  <trkpt lat="30.08435" lon="31.32582">
    <name>TP030</name>
  </trkpt>
  <trkpt lat="30.08438" lon="31.32567">
    <name>TP031</name>
  </trkpt>
  <trkpt lat="30.08445" lon="31.32536">
    <name>TP032</name>
  </trkpt>
  <trkpt lat="30.08449" lon="31.32527">
    <name>TP033</name>
  </trkpt>
  <trkpt lat="30.08454" lon="31.32514">
    <name>TP034</name>
  </trkpt>
  <trkpt lat="30.08456" lon="31.32508">
    <name>TP035</name>
  </trkpt>
  <trkpt lat="30.08463" lon="31.32489">
    <name>TP036</name>
  </trkpt>
  <trkpt lat="30.08464" lon="31.32488">
    <name>TP037</name>
  </trkpt>
  <trkpt lat="30.08473" lon="31.32472">
    <name>TP038</name>
  </trkpt>
  <trkpt lat="30.08489" lon="31.32442">
    <name>TP039</name>
  </trkpt>
  <trkpt lat="30.08492" lon="31.32437">
    <name>TP040</name>
  </trkpt>
  <trkpt lat="30.08515" lon="31.32402">
    <name>TP041</name>
  </trkpt>
  <trkpt lat="30.08527" lon="31.32382">
    <name>TP042</name>
  </trkpt>
  <trkpt lat="30.08536" lon="31.32367">
    <name>TP043</name>
  </trkpt>
  <trkpt lat="30.08547" lon="31.32348">
    <name>TP044</name>
  </trkpt>
  <trkpt lat="30.08556" lon="31.32333">
    <name>TP045</name>
  </trkpt>
  <trkpt lat="30.08566" lon="31.32315">
    <name>TP046</name>
  </trkpt>
  <trkpt lat="30.08576" lon="31.32298">
    <name>TP047</name>
  </trkpt>
  <trkpt lat="30.08581" lon="31.32291">
    <name>TP048</name>
  </trkpt>
  <trkpt lat="30.08587" lon="31.32281">
    <name>TP049</name>
  </trkpt>
  <trkpt lat="30.08602" lon="31.32258">
    <name>TP050</name>
  </trkpt>
  <trkpt lat="30.08624" lon="31.3222">
    <name>TP051</name>
  </trkpt>
  <trkpt lat="30.08632" lon="31.3221">
    <name>TP052</name>
  </trkpt>
  <trkpt lat="30.08634" lon="31.32208">
    <name>TP053</name>
  </trkpt>
  <trkpt lat="30.08637" lon="31.32207">
    <name>TP054</name>
  </trkpt>
  <trkpt lat="30.0863674" lon="31.3220737">
    <name>TP055</name>
  </trkpt>
  <trkpt lat="30.08635" lon="31.32221">
    <name>TP056</name>
  </trkpt>
  <trkpt lat="30.08627" lon="31.32239">
    <name>TP057</name>
  </trkpt>
  <trkpt lat="30.08616" lon="31.32258">
    <name>TP058</name>
  </trkpt>
  <trkpt lat="30.08576" lon="31.32325">
    <name>TP059</name>
  </trkpt>
  <trkpt lat="30.0857602" lon="31.3232451">
    <name>TP060</name>
  </trkpt>
  <trkpt lat="30.08634" lon="31.32419">
    <name>TP061</name>
  </trkpt>
  <trkpt lat="30.0863413" lon="31.32419">
    <name>TP062</name>
  </trkpt>
  <trkpt lat="30.08698" lon="31.32381">
    <name>TP063</name>
  </trkpt>
  <trkpt lat="30.08714" lon="31.32371">
    <name>TP064</name>
  </trkpt>
  <trkpt lat="30.08755" lon="31.32346">
    <name>TP065</name>
  </trkpt>
  <trkpt lat="30.0875472" lon="31.3234633">
    <name>TP066</name>
  </trkpt>
  <trkpt lat="30.08754" lon="31.32287">
    <name>TP067</name>
  </trkpt>
  <trkpt lat="30.0875396" lon="31.3228673">
    <name>TP068</name>
  </trkpt>
  <trkpt lat="30.08777" lon="31.32286">
    <name>TP069</name>
  </trkpt>
  <trkpt lat="30.087771" lon="31.3228559">
    <name>TP070</name>
  </trkpt>
  <trkpt lat="30.08777" lon="31.32281">
    <name>TP071</name>
  </trkpt>
  <trkpt lat="30.08778" lon="31.32277">
    <name>TP072</name>
  </trkpt>
  <trkpt lat="30.0878" lon="31.32271">
    <name>TP073</name>
  </trkpt>
  <trkpt lat="30.08789" lon="31.32253">
    <name>TP074</name>
  </trkpt>
  <trkpt lat="30.08793" lon="31.32245">
    <name>TP075</name>
  </trkpt>
  <trkpt lat="30.08816" lon="31.32204">
    <name>TP076</name>
  </trkpt>
  <trkpt lat="30.08854" lon="31.32149">
    <name>TP077</name>
  </trkpt>
  <trkpt lat="30.08865" lon="31.32136">
    <name>TP078</name>
  </trkpt>
  <trkpt lat="30.0887" lon="31.32133">
    <name>TP079</name>
  </trkpt>
  <trkpt lat="30.08885" lon="31.32121">
    <name>TP080</name>
  </trkpt>
  <trkpt lat="30.08895" lon="31.32114">
    <name>TP081</name>
  </trkpt>
  <trkpt lat="30.0889481" lon="31.3211431">
    <name>TP082</name>
  </trkpt>
  <trkpt lat="30.08902" lon="31.32127">
    <name>TP083</name>
  </trkpt>
  <trkpt lat="30.08915" lon="31.32151">
    <name>TP084</name>
  </trkpt>
  <trkpt lat="30.08924" lon="31.32167">
    <name>TP085</name>
  </trkpt>
  <trkpt lat="30.0895" lon="31.32212">
    <name>TP086</name>
  </trkpt>
  <trkpt lat="30.08952" lon="31.32216">
    <name>TP087</name>
  </trkpt>
  <trkpt lat="30.08981" lon="31.32262">
    <name>TP088</name>
  </trkpt>
  <trkpt lat="30.09" lon="31.32292">
    <name>TP089</name>
  </trkpt>
  <trkpt lat="30.09015" lon="31.32311">
    <name>TP090</name>
  </trkpt>
  <trkpt lat="30.09033" lon="31.32331">
    <name>TP091</name>
  </trkpt>
  <trkpt lat="30.09054" lon="31.32355">
    <name>TP092</name>
  </trkpt>
  <trkpt lat="30.09086" lon="31.32392">
    <name>TP093</name>
  </trkpt>
  <trkpt lat="30.09097" lon="31.32405">
    <name>TP094</name>
  </trkpt>
  <trkpt lat="30.0909709" lon="31.3240453">
    <name>TP095</name>
  </trkpt>
  <trkpt lat="30.0909709" lon="31.3240453">
    <name>TP096</name>
  </trkpt>
  <trkpt lat="30.09103" lon="31.32415">
    <name>TP097</name>
  </trkpt>
  <trkpt lat="30.09107" lon="31.32426">
    <name>TP098</name>
  </trkpt>
  <trkpt lat="30.0910677" lon="31.3242595">
    <name>TP099</name>
  </trkpt>
  <trkpt lat="30.09167" lon="31.32379">
    <name>TP100</name>
  </trkpt>
  <trkpt lat="30.09196" lon="31.32355">
    <name>TP101</name>
  </trkpt>
  <trkpt lat="30.09237" lon="31.32324">
    <name>TP102</name>
  </trkpt>
  <trkpt lat="30.0923669" lon="31.3232397">
    <name>TP103</name>
  </trkpt>
  <trkpt lat="30.09288" lon="31.32418">
    <name>TP104</name>
  </trkpt>
  <trkpt lat="30.09304" lon="31.32464">
    <name>TP105</name>
  </trkpt>
  <trkpt lat="30.09319" lon="31.32506">
    <name>TP106</name>
  </trkpt>
  <trkpt lat="30.09336" lon="31.32535">
    <name>TP107</name>
  </trkpt>
  <trkpt lat="30.0933647" lon="31.3253472">
    <name>TP108</name>
  </trkpt>
  <trkpt lat="30.0933647" lon="31.3253472">
    <name>TP109</name>
  </trkpt>
  <trkpt lat="30.09319" lon="31.32506">
    <name>TP110</name>
  </trkpt>
  <trkpt lat="30.0931939" lon="31.3250613">
    <name>TP111</name>
  </trkpt>
  <trkpt lat="30.09366" lon="31.32467">
    <name>TP112</name>
  </trkpt>
  <trkpt lat="30.09368" lon="31.32466">
    <name>TP113</name>
  </trkpt>
  <trkpt lat="30.09409" lon="31.32433">
    <name>TP114</name>
  </trkpt>
  <trkpt lat="30.0942" lon="31.32425">
    <name>TP115</name>
  </trkpt>
  <trkpt lat="30.0949" lon="31.32365">
    <name>TP116</name>
  </trkpt>
  <trkpt lat="30.09502" lon="31.32357">
    <name>TP117</name>
  </trkpt>
  <trkpt lat="30.09549" lon="31.3232">
    <name>TP118</name>
  </trkpt>
  <trkpt lat="30.09579" lon="31.32296">
    <name>TP119</name>
  </trkpt>
  <trkpt lat="30.09609" lon="31.32272">
    <name>TP120</name>
  </trkpt>
  <trkpt lat="30.09654" lon="31.32238">
    <name>TP121</name>
  </trkpt>
  <trkpt lat="30.09669" lon="31.32226">
    <name>TP122</name>
  </trkpt>
  <trkpt lat="30.09684" lon="31.32214">
    <name>TP123</name>
  </trkpt>
  <trkpt lat="30.09716" lon="31.3219">
    <name>TP124</name>
  </trkpt>
  <trkpt lat="30.0972" lon="31.32187">
    <name>TP125</name>
  </trkpt>
  <trkpt lat="30.09725" lon="31.32184">
    <name>TP126</name>
  </trkpt>
  <trkpt lat="30.0973" lon="31.32183">
    <name>TP127</name>
  </trkpt>
  <trkpt lat="30.09737" lon="31.3218">
    <name>TP128</name>
  </trkpt>
  <trkpt lat="30.09752" lon="31.32172">
    <name>TP129</name>
  </trkpt>
  <trkpt lat="30.09787" lon="31.32142">
    <name>TP130</name>
  </trkpt>
  <trkpt lat="30.0978688" lon="31.3214171">
    <name>TP131</name>
  </trkpt>
  <trkpt lat="30.09771" lon="31.32117">
    <name>TP132</name>
  </trkpt>
  <trkpt lat="30.09754" lon="31.32095">
    <name>TP133</name>
  </trkpt>
  <trkpt lat="30.097539" lon="31.3209502">
    <name>TP134</name>
  </trkpt>
  <trkpt lat="30.09759" lon="31.32098">
    <name>TP135</name>
  </trkpt>
  <trkpt lat="30.09763" lon="31.32099">
    <name>TP136</name>
  </trkpt>
  <trkpt lat="30.09765" lon="31.321">
    <name>TP137</name>
  </trkpt>
  <trkpt lat="30.09766" lon="31.321">
    <name>TP138</name>
  </trkpt>
  <trkpt lat="30.09767" lon="31.32099">
    <name>TP139</name>
  </trkpt>
  <trkpt lat="30.09768" lon="31.32099">
    <name>TP140</name>
  </trkpt>
  <trkpt lat="30.09769" lon="31.32099">
    <name>TP141</name>
  </trkpt>
  <trkpt lat="30.0977" lon="31.32097">
    <name>TP142</name>
  </trkpt>
  <trkpt lat="30.0977" lon="31.32096">
    <name>TP143</name>
  </trkpt>
  <trkpt lat="30.09771" lon="31.32094">
    <name>TP144</name>
  </trkpt>
  <trkpt lat="30.09771" lon="31.32091">
    <name>TP145</name>
  </trkpt>
  <trkpt lat="30.09771" lon="31.32086">
    <name>TP146</name>
  </trkpt>
  <trkpt lat="30.09769" lon="31.32077">
    <name>TP147</name>
  </trkpt>
  <trkpt lat="30.0976905" lon="31.3207707">
    <name>TP148</name>
  </trkpt>
  <trkpt lat="30.09735" lon="31.32027">
    <name>TP149</name>
  </trkpt>
  <trkpt lat="30.0973481" lon="31.3202748">
    <name>TP150</name>
  </trkpt>
  <trkpt lat="30.09745" lon="31.32023">
    <name>TP151</name>
  </trkpt>
  <trkpt lat="30.09748" lon="31.3202">
    <name>TP152</name>
  </trkpt>
  <trkpt lat="30.09752" lon="31.32015">
    <name>TP153</name>
  </trkpt>
  <trkpt lat="30.09755" lon="31.3201">
    <name>TP154</name>
  </trkpt>
  <trkpt lat="30.09756" lon="31.32008">
    <name>TP155</name>
  </trkpt>
  <trkpt lat="30.09757" lon="31.32005">
    <name>TP156</name>
  </trkpt>
  <trkpt lat="30.09758" lon="31.32002">
    <name>TP157</name>
  </trkpt>
  <trkpt lat="30.09759" lon="31.32">
    <name>TP158</name>
  </trkpt>
  <trkpt lat="30.09759" lon="31.31997">
    <name>TP159</name>
  </trkpt>
  <trkpt lat="30.09758" lon="31.31991">
    <name>TP160</name>
  </trkpt>
  <trkpt lat="30.09758" lon="31.31989">
    <name>TP161</name>
  </trkpt>
  <trkpt lat="30.09757" lon="31.31987">
    <name>TP162</name>
  </trkpt>
  <trkpt lat="30.09757" lon="31.31986">
    <name>TP163</name>
  </trkpt>
  <trkpt lat="30.09755" lon="31.31982">
    <name>TP164</name>
  </trkpt>
  <trkpt lat="30.09753" lon="31.31979">
    <name>TP165</name>
  </trkpt>
  <trkpt lat="30.097531" lon="31.3197933">
    <name>TP166</name>
  </trkpt>
  <trkpt lat="30.09745" lon="31.31972">
    <name>TP167</name>
  </trkpt>
  <trkpt lat="30.09741" lon="31.31966">
    <name>TP168</name>
  </trkpt>
  <trkpt lat="30.09737" lon="31.3196">
    <name>TP169</name>
  </trkpt>
  <trkpt lat="30.09735" lon="31.31957">
    <name>TP170</name>
  </trkpt>
  <trkpt lat="30.09731" lon="31.31953">
    <name>TP171</name>
  </trkpt>
  <trkpt lat="30.09729" lon="31.31952">
    <name>TP172</name>
  </trkpt>
  <trkpt lat="30.09727" lon="31.3195">
    <name>TP173</name>
  </trkpt>
  <trkpt lat="30.09724" lon="31.31948">
    <name>TP174</name>
  </trkpt>
  <trkpt lat="30.09722" lon="31.31945">
    <name>TP175</name>
  </trkpt>
  <trkpt lat="30.0972" lon="31.31941">
    <name>TP176</name>
  </trkpt>
  <trkpt lat="30.09719" lon="31.31938">
    <name>TP177</name>
  </trkpt>
  <trkpt lat="30.09718" lon="31.31934">
    <name>TP178</name>
  </trkpt>
  <trkpt lat="30.09717" lon="31.31929">
    <name>TP179</name>
  </trkpt>
  <trkpt lat="30.09716" lon="31.31926">
    <name>TP180</name>
  </trkpt>
  <trkpt lat="30.09715" lon="31.31924">
    <name>TP181</name>
  </trkpt>
  <trkpt lat="30.09714" lon="31.31923">
    <name>TP182</name>
  </trkpt>
  <trkpt lat="30.09712" lon="31.31918">
    <name>TP183</name>
  </trkpt>
  <trkpt lat="30.0971205" lon="31.3191818">
    <name>TP184</name>
  </trkpt>
  <trkpt lat="30.09733" lon="31.31898">
    <name>TP185</name>
  </trkpt>
  <trkpt lat="30.09739" lon="31.3189">
    <name>TP186</name>
  </trkpt>
  <trkpt lat="30.09751" lon="31.31877">
    <name>TP187</name>
  </trkpt>
  <trkpt lat="30.09756" lon="31.3187">
    <name>TP188</name>
  </trkpt>
  <trkpt lat="30.09765" lon="31.31848">
    <name>TP189</name>
  </trkpt>
  <trkpt lat="30.09765" lon="31.31846">
    <name>TP190</name>
  </trkpt>
  <trkpt lat="30.09775" lon="31.3182">
    <name>TP191</name>
  </trkpt>
  <trkpt lat="30.09778" lon="31.31816">
    <name>TP192</name>
  </trkpt>
  <trkpt lat="30.0978" lon="31.31814">
    <name>TP193</name>
  </trkpt>
  <trkpt lat="30.09782" lon="31.31812">
    <name>TP194</name>
  </trkpt>
  <trkpt lat="30.09785" lon="31.3181">
    <name>TP195</name>
  </trkpt>
  <trkpt lat="30.09788" lon="31.31807">
    <name>TP196</name>
  </trkpt>
  <trkpt lat="30.09793" lon="31.31806">
    <name>TP197</name>
  </trkpt>
  <trkpt lat="30.09804" lon="31.31805">
    <name>TP198</name>
  </trkpt>
  <trkpt lat="30.09815" lon="31.31804">
    <name>TP199</name>
  </trkpt>
  <trkpt lat="30.09817" lon="31.31803">
    <name>TP200</name>
  </trkpt>
  <trkpt lat="30.09822" lon="31.31801">
    <name>TP201</name>
  </trkpt>
  <trkpt lat="30.09827" lon="31.31798">
    <name>TP202</name>
  </trkpt>
  <trkpt lat="30.09833" lon="31.31796">
    <name>TP203</name>
  </trkpt>
  <trkpt lat="30.0983285" lon="31.3179558">
    <name>TP204</name>
  </trkpt>
  <trkpt lat="30.09815" lon="31.31755">
    <name>TP205</name>
  </trkpt>
  <trkpt lat="30.09813" lon="31.31751">
    <name>TP206</name>
  </trkpt>
  <trkpt lat="30.09811" lon="31.31749">
    <name>TP207</name>
  </trkpt>
  <trkpt lat="30.09809" lon="31.31748">
    <name>TP208</name>
  </trkpt>
  <trkpt lat="30.09808" lon="31.31747">
    <name>TP209</name>
  </trkpt>
  <trkpt lat="30.09806" lon="31.31747">
    <name>TP210</name>
  </trkpt>
  <trkpt lat="30.09804" lon="31.31747">
    <name>TP211</name>
  </trkpt>
  <trkpt lat="30.09801" lon="31.31748">
    <name>TP212</name>
  </trkpt>
  <trkpt lat="30.09793" lon="31.31752">
    <name>TP213</name>
  </trkpt>
  <trkpt lat="30.09787" lon="31.31755">
    <name>TP214</name>
  </trkpt>
  <trkpt lat="30.09786" lon="31.31755">
    <name>TP215</name>
  </trkpt>
  <trkpt lat="30.09785" lon="31.31755">
    <name>TP216</name>
  </trkpt>
  <trkpt lat="30.09784" lon="31.31755">
    <name>TP217</name>
  </trkpt>
  <trkpt lat="30.09784" lon="31.31754">
    <name>TP218</name>
  </trkpt>
  <trkpt lat="30.09783" lon="31.31753">
    <name>TP219</name>
  </trkpt>
  <trkpt lat="30.09759" lon="31.31715">
    <name>TP220</name>
  </trkpt>
  <trkpt lat="30.0975895" lon="31.317146">
    <name>TP221</name>
  </trkpt>
  <trkpt lat="30.09722" lon="31.31713">
    <name>TP222</name>
  </trkpt>
  <trkpt lat="30.09721" lon="31.31714">
    <name>TP223</name>
  </trkpt>
  <trkpt lat="30.09714" lon="31.31718">
    <name>TP224</name>
  </trkpt>
  <trkpt lat="30.09711" lon="31.3172">
    <name>TP225</name>
  </trkpt>
  <trkpt lat="30.09708" lon="31.3172">
    <name>TP226</name>
  </trkpt>
  <trkpt lat="30.0970798" lon="31.3172017">
    <name>TP227</name>
  </trkpt>
  <trkpt lat="30.09707" lon="31.31718">
    <name>TP228</name>
  </trkpt>
  <trkpt lat="30.09707" lon="31.31716">
    <name>TP229</name>
  </trkpt>
  <trkpt lat="30.09674" lon="31.31676">
    <name>TP230</name>
  </trkpt>
  <trkpt lat="30.0967403" lon="31.3167552">
    <name>TP231</name>
  </trkpt>
  <trkpt lat="30.0967403" lon="31.3167552">
    <name>TP232</name>
  </trkpt>
  <trkpt lat="30.09667" lon="31.31666">
    <name>TP233</name>
  </trkpt>
  <trkpt lat="30.0963" lon="31.31621">
    <name>TP234</name>
  </trkpt>
  <trkpt lat="30.09612" lon="31.31599">
    <name>TP235</name>
  </trkpt>
  <trkpt lat="30.0961" lon="31.31596">
    <name>TP236</name>
  </trkpt>
  <trkpt lat="30.09607" lon="31.31596">
    <name>TP237</name>
  </trkpt>
  <trkpt lat="30.09605" lon="31.31596">
    <name>TP238</name>
  </trkpt>
  <trkpt lat="30.09603" lon="31.31595">
    <name>TP239</name>
  </trkpt>
  <trkpt lat="30.09601" lon="31.31595">
    <name>TP240</name>
  </trkpt>
  <trkpt lat="30.09599" lon="31.31594">
    <name>TP241</name>
  </trkpt>
  <trkpt lat="30.09595" lon="31.31592">
    <name>TP242</name>
  </trkpt>
  <trkpt lat="30.0959" lon="31.3159">
    <name>TP243</name>
  </trkpt>
  <trkpt lat="30.09587" lon="31.31588">
    <name>TP244</name>
  </trkpt>
  <trkpt lat="30.09583" lon="31.31585">
    <name>TP245</name>
  </trkpt>
  <trkpt lat="30.09578" lon="31.31582">
    <name>TP246</name>
  </trkpt>
  <trkpt lat="30.09574" lon="31.31578">
    <name>TP247</name>
  </trkpt>
  <trkpt lat="30.0957" lon="31.31572">
    <name>TP248</name>
  </trkpt>
  <trkpt lat="30.0956" lon="31.31556">
    <name>TP249</name>
  </trkpt>
  <trkpt lat="30.0956023" lon="31.3155602">
    <name>TP250</name>
  </trkpt>
  <trkpt lat="30.09502" lon="31.31608">
    <name>TP251</name>
  </trkpt>
  <trkpt lat="30.09497" lon="31.31613">
    <name>TP252</name>
  </trkpt>
  <trkpt lat="30.09492" lon="31.31619">
    <name>TP253</name>
  </trkpt>
  <trkpt lat="30.09489" lon="31.31626">
    <name>TP254</name>
  </trkpt>
  <trkpt lat="30.09486" lon="31.31644">
    <name>TP255</name>
  </trkpt>
  <trkpt lat="30.09476" lon="31.31654">
    <name>TP256</name>
  </trkpt>
  <trkpt lat="30.09469" lon="31.31668">
    <name>TP257</name>
  </trkpt>
  <trkpt lat="30.0946921" lon="31.316676">
    <name>TP258</name>
  </trkpt>
  <trkpt lat="30.0946" lon="31.31651">
    <name>TP259</name>
  </trkpt>
  <trkpt lat="30.0945965" lon="31.3165138">
    <name>TP260</name>
  </trkpt>
  <trkpt lat="30.09423" lon="31.31686">
    <name>TP261</name>
  </trkpt>
  <trkpt lat="30.09395" lon="31.31713">
    <name>TP262</name>
  </trkpt>
  <trkpt lat="30.09381" lon="31.31726">
    <name>TP263</name>
  </trkpt>
  <trkpt lat="30.09354" lon="31.31752">
    <name>TP264</name>
  </trkpt>
  <trkpt lat="30.09346" lon="31.3176">
    <name>TP265</name>
  </trkpt>
  <trkpt lat="30.09312" lon="31.31796">
    <name>TP266</name>
  </trkpt>
  <trkpt lat="30.0931163" lon="31.3179622">
    <name>TP267</name>
  </trkpt>
  <trkpt lat="30.09242" lon="31.31739">
    <name>TP268</name>
  </trkpt>
  <trkpt lat="30.0924201" lon="31.3173854">
    <name>TP269</name>
  </trkpt>
  <trkpt lat="30.09227" lon="31.31784">
    <name>TP270</name>
  </trkpt>
  <trkpt lat="30.09219" lon="31.31809">
    <name>TP271</name>
  </trkpt>
  <trkpt lat="30.09214" lon="31.31822">
    <name>TP272</name>
  </trkpt>
  <trkpt lat="30.09207" lon="31.31838">
    <name>TP273</name>
  </trkpt>
  <trkpt lat="30.09198" lon="31.31853">
    <name>TP274</name>
  </trkpt>
  <trkpt lat="30.09189" lon="31.31867">
    <name>TP275</name>
  </trkpt>
  <trkpt lat="30.09178" lon="31.31881">
    <name>TP276</name>
  </trkpt>
  <trkpt lat="30.09162" lon="31.31897">
    <name>TP277</name>
  </trkpt>
  <trkpt lat="30.09125" lon="31.31928">
    <name>TP278</name>
  </trkpt>
  <trkpt lat="30.09102" lon="31.31948">
    <name>TP279</name>
  </trkpt>
  <trkpt lat="30.09054" lon="31.31985">
    <name>TP280</name>
  </trkpt>
  <trkpt lat="30.09048" lon="31.3199">
    <name>TP281</name>
  </trkpt>
  <trkpt lat="30.0904" lon="31.31996">
    <name>TP282</name>
  </trkpt>
  <trkpt lat="30.0903999" lon="31.3199629">
    <name>TP283</name>
  </trkpt>
  <trkpt lat="30.0905" lon="31.32013">
    <name>TP284</name>
  </trkpt>
  <trkpt lat="30.09072" lon="31.32051">
    <name>TP285</name>
  </trkpt>
  <trkpt lat="30.09093" lon="31.32085">
    <name>TP286</name>
  </trkpt>
  <trkpt lat="30.09115" lon="31.32121">
    <name>TP287</name>
  </trkpt>
  <trkpt lat="30.0911478" lon="31.3212142">
    <name>TP288</name>
  </trkpt>
  <trkpt lat="30.0911478" lon="31.3212142">
    <name>TP289</name>
  </trkpt>
  <trkpt lat="30.0911478" lon="31.3212142">
    <name>TP290</name>
  </trkpt>
  </trkseg>
</trk>
</gpx>